INTELSAT 901
1 26865U 01020A   25030.12345678  .00000000  00000+0  00000+0 0  9997
2 26865   0.1000 000.0000 0000000  00.0000 000.0000  1.00271234567890

EUTELSAT 10A
1 27383U 02012A   25030.12345678  .00000000  00000+0  00000+0 0  9997
2 27383   0.1000 000.0000 0000000  00.0000 000.0000  1.00271234567890
